SAUDISAT 1C (SO-50)     
1 27607U 02058C   26192.83511488  .00000404  00000+0  65677-4 0  9997
2 27607  64.5517  52.7226 0074622 257.8961 101.3778 14.83094671268113
SAUDISAT 2              
1 28371U 04025F   26193.58127125  .00000111  00000+0  35825-4 0  9993
2 28371  98.5519 194.2206 0023928 216.4275 143.5295 14.56697427169449
SAUDISAT 3              
1 31118U 07012B   26193.41939389  .00000110  00000+0  25887-4 0  9996
2 31118  98.1467 143.8383 0015409 143.0346 217.1925 14.71439418 31453
PISAT                   
1 41784U 16059B   26193.55077443  .00000470  00000+0  87652-4 0  9993
2 41784  97.8189 192.9148 0030346 122.9134 237.4998 14.69026784523469
FLYING LAPTOP           
1 42831U 17042G   26193.58070772  .00002162  00000+0  17186-3 0  9995
2 42831  97.4790 348.1565 0019820  40.8258 319.4447 15.01302217490260
SALSAT                  
1 46495U 20068K   26192.54062004  .00004447  00000+0  15528-3 0  9997
2 46495  97.8855 197.0941 0008823 206.5203 153.5586 15.30139435319080
